[{"OBJECT_NAME":"STARLINK-30144","OBJECT_ID":"2023-079N","EPOCH":"2026-03-09T11:12:52.591968","MEAN_MOTION":15.27165073,"ECCENTRICITY":2.537e-5,"INCLINATION":42.9924,"RA_OF_ASC_NODE":104.942,"ARG_OF_PERICENTER":240.8019,"MEAN_ANOMALY":119.2807,"EPHEMERIS_TYPE":0,"CLASSIFICATION_TYPE":"U","NORAD_CAT_ID":56835,"ELEMENT_SET_NO":999,"REV_AT_EPOCH":15289,"BSTAR":0.00074606889,"MEAN_MOTION_DOT":0.00020067,"MEAN_MOTION_DDOT":0},{"OBJECT_NAME":"GESAT GEN1","OBJECT_ID":"2025-009D","EPOCH":"2026-03-09T17:26:20.087232","MEAN_MOTION":15.26847505,"ECCENTRICITY":8.879e-5,"INCLINATION":97.4058,"RA_OF_ASC_NODE":151.4598,"ARG_OF_PERICENTER":98.3547,"MEAN_ANOMALY":261.7793,"EPHEMERIS_TYPE":0,"CLASSIFICATION_TYPE":"U","NORAD_CAT_ID":62612,"ELEMENT_SET_NO":999,"REV_AT_EPOCH":6373,"BSTAR":0.00038326131,"MEAN_MOTION_DOT":0.00010041,"MEAN_MOTION_DDOT":0}]
